{"type": "FeatureCollection", "features": [ {"type": "Feature", "properties": {"norad_id": 30121, "name": "FENGYUN 1C DEB", "group": "fengyun-1c-debris", "lat": 49.111005016110624, "lon": 8.709761261984434, "alt_km": 752.5118680756868, "timestamp": "2025-12-23T07:45:09.678388+00:00", "meta": {"OBJECT_NAME": "FENGYUN 1C DEB", "OBJECT_ID": "1999-025SA", "EPOCH": "2025-12-22T20:39:51.131808", "MEAN_MOTION": 14.40114756, "ECCENTRICITY": 0.00305309, "INCLINATION": 102.1636, "RA_OF_ASC_NODE": 22.4795, "ARG_OF_PERICENTER": 139.5288, "MEAN_ANOMALY": 37.4465, "EPHEMERIS_TYPE": 0, "CLASSIFICATION_TYPE": "U", "NORAD_CAT_ID": 30121, "ELEMENT_SET_NO": 999, "REV_AT_EPOCH": 97685, "BSTAR": 0.0020497729, "MEAN_MOTION_DOT": 6.438e-05, "MEAN_MOTION_DDOT": 0}, "tle": {"line1": "1 30121U 99025SA  25356.86100847  .00006438  00000+0  20498-2 0  9992", "line2": "2 30121 102.1636  22.4795 0030530 139.5288  37.4465 14.40114756976851"}}, "geometry": {"type": "Point", "coordinates": [8.709761261984434, 49.111005016110624]}}, {"type": "Feature", "properties": {"norad_id": 30123, "name": "FENGYUN 1C DEB", "group": "fengyun-1c-debris", "lat": 5.988959623202936, "lon": -65.14199844685984, "alt_km": 691.1662832612765, "timestamp": "2025-12-23T07:45:09.678399+00:00", "meta": {"OBJECT_NAME": "FENGYUN 1C DEB", "OBJECT_ID": "1999-025SC", "EPOCH": "2025-12-21T18:40:43.900896", "MEAN_MOTION": 14.26054708, "ECCENTRICITY": 0.02307645, "INCLINATION": 96.9279, "RA_OF_ASC_NODE": 294.3647, "ARG_OF_PERICENTER": 57.4557, "MEAN_ANOMALY": 304.8691, "EPHEMERIS_TYPE": 0, "CLASSIFICATION_TYPE": "U", "NORAD_CAT_ID": 30123, "ELEMENT_SET_NO": 999, "REV_AT_EPOCH": 97376, "BSTAR": 0.0014570039, "MEAN_MOTION_DOT": 4.578e-05, "MEAN_MOTION_DDOT": 0}, "tle": {"line1": "1 30123U 99025SC  25355.77828589  .00004578  00000+0  14570-2 0  9990", "line2": "2 30123  96.9279 294.3647 0230764  57.4557 304.8691 14.26054708973763"}}, "geometry": {"type": "Point", "coordinates": [-65.14199844685984, 5.988959623202936]}}, {"type": "Feature", "properties": {"norad_id": 30124, "name": "FENGYUN 1C DEB", "group": "fengyun-1c-debris", "lat": -26.41536666400027, "lon": -133.1590602140664, "alt_km": 916.6905791315976, "timestamp": "2025-12-23T07:45:09.678409+00:00", "meta": {"OBJECT_NAME": "FENGYUN 1C DEB", "OBJECT_ID": "1999-025SD", "EPOCH": "2025-12-22T17:44:19.791744", "MEAN_MOTION": 14.14264571, "ECCENTRICITY": 0.01427842, "INCLINATION": 99.1308, "RA_OF_ASC_NODE": 50.8264, "ARG_OF_PERICENTER": 77.725, "MEAN_ANOMALY": 36.4451, "EPHEMERIS_TYPE": 0, "CLASSIFICATION_TYPE": "U", "NORAD_CAT_ID": 30124, "ELEMENT_SET_NO": 999, "REV_AT_EPOCH": 97056, "BSTAR": 0.00073671442, "MEAN_MOTION_DOT": 1.506e-05, "MEAN_MOTION_DDOT": 0}, "tle": {"line1": "1 30124U 99025SD  25356.73911796  .00001506  00000+0  73671-3 0  9997", "line2": "2 30124  99.1308  50.8264 0142784  77.7250  36.4451 14.14264571970566"}}, "geometry": {"type": "Point", "coordinates": [-133.1590602140664, -26.41536666400027]}}, {"type": "Feature", "properties": {"norad_id": 30125, "name": "FENGYUN 1C DEB", "group": "fengyun-1c-debris", "lat": -38.859327704780014, "lon": 103.15125987579509, "alt_km": 578.6019162002003, "timestamp": "2025-12-23T07:45:09.678419+00:00", "meta": {"OBJECT_NAME": "FENGYUN 1C DEB", "OBJECT_ID": "1999-025SE", "EPOCH": "2025-12-22T20:42:25.201152", "MEAN_MOTION": 14.22698443, "ECCENTRICITY": 0.03417212, "INCLINATION": 98.7238, "RA_OF_ASC_NODE": 95.588, "ARG_OF_PERICENTER": 314.7716, "MEAN_ANOMALY": 169.5724, "EPHEMERIS_TYPE": 0, "CLASSIFICATION_TYPE": "U", "NORAD_CAT_ID": 30125, "ELEMENT_SET_NO": 999, "REV_AT_EPOCH": 97065, "BSTAR": 0.00052645508, "MEAN_MOTION_DOT": 2.093e-05, "MEAN_MOTION_DDOT": 0}, "tle": {"line1": "1 30125U 99025SE  25356.86279168  .00002093  00000+0  52646-3 0  9993", "line2": "2 30125  98.7238  95.5880 0341721 314.7716 169.5724 14.22698443970656"}}, "geometry": {"type": "Point", "coordinates": [103.15125987579509, -38.859327704780014]}}, {"type": "Feature", "properties": {"norad_id": 30127, "name": "FENGYUN 1C DEB", "group": "fengyun-1c-debris", "lat": -53.40421069743009, "lon": 22.156094306316128, "alt_km": 832.5854425785783, "timestamp": "2025-12-23T07:45:09.678429+00:00", "meta": {"OBJECT_NAME": "FENGYUN 1C DEB", "OBJECT_ID": "1999-025SG", "EPOCH": "2025-12-22T20:39:04.630464", "MEAN_MOTION": 14.38126393, "ECCENTRICITY": 0.00858936, "INCLINATION": 98.2057, "RA_OF_ASC_NODE": 212.9195, "ARG_OF_PERICENTER": 48.8179, "MEAN_ANOMALY": 312.0376, "EPHEMERIS_TYPE": 0, "CLASSIFICATION_TYPE": "U", "NORAD_CAT_ID": 30127, "ELEMENT_SET_NO": 999, "REV_AT_EPOCH": 97381, "BSTAR": 0.0023892601, "MEAN_MOTION_DOT": 7.527e-05, "MEAN_MOTION_DDOT": 0}, "tle": {"line1": "1 30127U 99025SG  25356.86047026  .00007527  00000+0  23893-2 0  9999", "line2": "2 30127  98.2057 212.9195 0085893  48.8179 312.0376 14.38126393973815"}}, "geometry": {"type": "Point", "coordinates": [22.156094306316128, -53.40421069743009]}}, {"type": "Feature", "properties": {"norad_id": 30128, "name": "FENGYUN 1C DEB", "group": "fengyun-1c-debris", "lat": 18.4574122844236, "lon": 176.5535756631359, "alt_km": 710.7468999414777, "timestamp": "2025-12-23T07:45:09.678439+00:00", "meta": {"OBJECT_NAME": "FENGYUN 1C DEB", "OBJECT_ID": "1999-025SH", "EPOCH": "2025-12-22T16:21:07.312032", "MEAN_MOTION": 14.46269689, "ECCENTRICITY": 0.01075492, "INCLINATION": 96.9798, "RA_OF_ASC_NODE": 353.6812, "ARG_OF_PERICENTER": 93.702, "MEAN_ANOMALY": 327.414, "EPHEMERIS_TYPE": 0, "CLASSIFICATION_TYPE": "U", "NORAD_CAT_ID": 30128, "ELEMENT_SET_NO": 999, "REV_AT_EPOCH": 97455, "BSTAR": 0.0025649297, "MEAN_MOTION_DOT": 9.849e-05, "MEAN_MOTION_DDOT": 0}, "tle": {"line1": "1 30128U 99025SH  25356.68133463  .00009849  00000+0  25649-2 0  9991", "line2": "2 30128  96.9798 353.6812 0107549  93.7020 327.4140 14.46269689974555"}}, "geometry": {"type": "Point", "coordinates": [176.5535756631359, 18.4574122844236]}}, {"type": "Feature", "properties": {"norad_id": 30129, "name": "FENGYUN 1C DEB", "group": "fengyun-1c-debris", "lat": -40.3320756854286, "lon": 111.03536433461483, "alt_km": 1021.6337241692418, "timestamp": "2025-12-23T07:45:09.678449+00:00", "meta": {"OBJECT_NAME": "FENGYUN 1C DEB", "OBJECT_ID": "1999-025SJ", "EPOCH": "2025-12-21T19:01:35.390208", "MEAN_MOTION": 14.01595893, "ECCENTRICITY": 0.01884239, "INCLINATION": 98.0301, "RA_OF_ASC_NODE": 296.5705, "ARG_OF_PERICENTER": 66.7764, "MEAN_ANOMALY": 356.1987, "EPHEMERIS_TYPE": 0, "CLASSIFICATION_TYPE": "U", "NORAD_CAT_ID": 30129, "ELEMENT_SET_NO": 999, "REV_AT_EPOCH": 96605, "BSTAR": 0.00053841328, "MEAN_MOTION_DOT": 9.17e-06, "MEAN_MOTION_DDOT": 0}, "tle": {"line1": "1 30129U 99025SJ  25355.79277072  .00000917  00000+0  53841-3 0  9991", "line2": "2 30129  98.0301 296.5705 0188423  66.7764 356.1987 14.01595893966054"}}, "geometry": {"type": "Point", "coordinates": [111.03536433461483, -40.3320756854286]}}, {"type": "Feature", "properties": {"norad_id": 30131, "name": "FENGYUN 1C DEB", "group": "fengyun-1c-debris", "lat": -40.974022019757506, "lon": 97.42706602067665, "alt_km": 885.9192867176216, "timestamp": "2025-12-23T07:45:09.678459+00:00", "meta": {"OBJECT_NAME": "FENGYUN 1C DEB", "OBJECT_ID": "1999-025SL", "EPOCH": "2025-12-22T05:00:43.211808", "MEAN_MOTION": 14.21282184, "ECCENTRICITY": 0.00822863, "INCLINATION": 99.0752, "RA_OF_ASC_NODE": 88.3033, "ARG_OF_PERICENTER": 132.2941, "MEAN_ANOMALY": 248.5935, "EPHEMERIS_TYPE": 0, "CLASSIFICATION_TYPE": "U", "NORAD_CAT_ID": 30131, "ELEMENT_SET_NO": 999, "REV_AT_EPOCH": 96823, "BSTAR": 0.0023825735, "MEAN_MOTION_DOT": 5.331e-05, "MEAN_MOTION_DDOT": 0}, "tle": {"line1": "1 30131U 99025SL  25356.20883347  .00005331  00000+0  23826-2 0  9993", "line2": "2 30131  99.0752  88.3033 0082286 132.2941 248.5935 14.21282184968232"}}, "geometry": {"type": "Point", "coordinates": [97.42706602067665, -40.974022019757506]}}, {"type": "Feature", "properties": {"norad_id": 30132, "name": "FENGYUN 1C DEB", "group": "fengyun-1c-debris", "lat": 24.870163261667233, "lon": -53.18655831303262, "alt_km": 833.9388463188388, "timestamp": "2025-12-23T07:45:09.678469+00:00", "meta": {"OBJECT_NAME": "FENGYUN 1C DEB", "OBJECT_ID": "1999-025SM", "EPOCH": "2025-12-22T19:43:24.681216", "MEAN_MOTION": 13.94862804, "ECCENTRICITY": 0.0105662, "INCLINATION": 99.579, "RA_OF_ASC_NODE": 310.783, "ARG_OF_PERICENTER": 22.8449, "MEAN_ANOMALY": 6.9142, "EPHEMERIS_TYPE": 0, "CLASSIFICATION_TYPE": "U", "NORAD_CAT_ID": 30132, "ELEMENT_SET_NO": 999, "REV_AT_EPOCH": 96230, "BSTAR": 0.00050186616, "MEAN_MOTION_DOT": 6.58e-06, "MEAN_MOTION_DDOT": 0}, "tle": {"line1": "1 30132U 99025SM  25356.82181344  .00000658  00000+0  50187-3 0  9998", "line2": "2 30132  99.5790 310.7830 0105662  22.8449   6.9142 13.94862804962308"}}, "geometry": {"type": "Point", "coordinates": [-53.18655831303262, 24.870163261667233]}}, {"type": "Feature", "properties": {"norad_id": 30133, "name": "FENGYUN 1C DEB", "group": "fengyun-1c-debris", "lat": 0.11493951143695066, "lon": 163.15977915069482, "alt_km": 913.083184252826, "timestamp": "2025-12-23T07:45:09.678505+00:00", "meta": {"OBJECT_NAME": "FENGYUN 1C DEB", "OBJECT_ID": "1999-025SN", "EPOCH": "2025-12-21T22:13:24.831840", "MEAN_MOTION": 14.06712256, "ECCENTRICITY": 0.0085947, "INCLINATION": 98.3241, "RA_OF_ASC_NODE": 161.8906, "ARG_OF_PERICENTER": 234.4064, "MEAN_ANOMALY": 254.1547, "EPHEMERIS_TYPE": 0, "CLASSIFICATION_TYPE": "U", "NORAD_CAT_ID": 30133, "ELEMENT_SET_NO": 999, "REV_AT_EPOCH": 96507, "BSTAR": 0.0015458667, "MEAN_MOTION_DOT": 2.616e-05, "MEAN_MOTION_DDOT": 0}, "tle": {"line1": "1 30133U 99025SN  25355.92598185  .00002616  00000+0  15459-2 0  9992", "line2": "2 30133  98.3241 161.8906 0085947 234.4064 254.1547 14.06712256965075"}}, "geometry": {"type": "Point", "coordinates": [163.15977915069482, 0.11493951143695066]}}]}